{
  "type": "FeatureCollection",
  "features": [
    {
      "type": "Feature",
      "properties": {
        "norad_id": 66918,
        "name": "HULIANWANG DIGUI-108",
        "group": "last-30-days",
        "lat": 44.56433163960224,
        "lon": -150.0709990624103,
        "alt_km": 879.8229386974117,
        "timestamp": "2025-12-20T11:30:27.107244+00:00",
        "meta_object_name": "HULIANWANG DIGUI-108",
        "meta_object_id": "2025-285D",
        "meta_epoch": "2025-12-20T05:50:32.419392",
        "meta_mean_motion": 14.03601667,
        "meta_eccentricity": 0.0006607,
        "meta_inclination": 50.0046,
        "meta_ra_of_asc_node": 86.6636,
        "meta_arg_of_pericenter": 305.0325,
        "meta_mean_anomaly": 54.9959,
        "meta_ephemeris_type": 0,
        "meta_classification_type": "U",
        "meta_norad_cat_id": 66918,
        "meta_element_set_no": 999,
        "meta_rev_at_epoch": 196,
        "meta_bstar": 8.5633e-05,
        "meta_mean_motion_dot": -1.6e-07,
        "meta_mean_motion_ddot": 0,
        "tle_line1": "1 66918U 25285D   25354.24343078 -.00000016  00000+0  85633-4 0  9998",
        "tle_line2": "2 66918  50.0046  86.6636 0006607 305.0325  54.9959 14.03601667  1960"
      },
      "geometry": {
        "type": "Point",
        "coordinates": [
          -150.0709990624103,
          44.56433163960224
        ]
      }
    },
    {
      "type": "Feature",
      "properties": {
        "norad_id": 66919,
        "name": "HULIANWANG DIGUI-109",
        "group": "last-30-days",
        "lat": 41.20290731350535,
        "lon": -141.60756215494396,
        "alt_km": 880.6536887619031,
        "timestamp": "2025-12-20T11:30:27.107255+00:00",
        "meta_object_name": "HULIANWANG DIGUI-109",
        "meta_object_id": "2025-285E",
        "meta_epoch": "2025-12-20T05:48:34.060896",
        "meta_mean_motion": 14.03725511,
        "meta_eccentricity": 0.0007873,
        "meta_inclination": 50.0069,
        "meta_ra_of_asc_node": 86.661,
        "meta_arg_of_pericenter": 317.4726,
        "meta_mean_anomaly": 42.5568,
        "meta_ephemeris_type": 0,
        "meta_classification_type": "U",
        "meta_norad_cat_id": 66919,
        "meta_element_set_no": 999,
        "meta_rev_at_epoch": 196,
        "meta_bstar": -9.7833e-06,
        "meta_mean_motion_dot": -1.67e-06,
        "meta_mean_motion_ddot": 0,
        "tle_line1": "1 66919U 25285E   25354.24206089 -.00000167  00000+0 -97833-5 0  9993",
        "tle_line2": "2 66919  50.0069  86.6610 0007873 317.4726  42.5568 14.03725511  1960"
      },
      "geometry": {
        "type": "Point",
        "coordinates": [
          -141.60756215494396,
          41.20290731350535
        ]
      }
    },
    {
      "type": "Feature",
      "properties": {
        "norad_id": 66920,
        "name": "HULIANWANG DIGUI-110",
        "group": "last-30-days",
        "lat": 38.81847848875298,
        "lon": -136.78366924364082,
        "alt_km": 879.7044390632873,
        "timestamp": "2025-12-20T11:30:27.107265+00:00",
        "meta_object_name": "HULIANWANG DIGUI-110",
        "meta_object_id": "2025-285F",
        "meta_epoch": "2025-12-20T05:47:18.373632",
        "meta_mean_motion": 14.0368209,
        "meta_eccentricity": 0.000558,
        "meta_inclination": 50.0103,
        "meta_ra_of_asc_node": 86.6624,
        "meta_arg_of_pericenter": 314.596,
        "meta_mean_anomaly": 45.4489,
        "meta_ephemeris_type": 0,
        "meta_classification_type": "U",
        "meta_norad_cat_id": 66920,
        "meta_element_set_no": 999,
        "meta_rev_at_epoch": 196,
        "meta_bstar": 8.3634e-05,
        "meta_mean_motion_dot": -1.9e-07,
        "meta_mean_motion_ddot": 0,
        "tle_line1": "1 66920U 25285F   25354.24118488 -.00000019  00000+0  83634-4 0  9998",
        "tle_line2": "2 66920  50.0103  86.6624 0005580 314.5960  45.4489 14.03682090  1965"
      },
      "geometry": {
        "type": "Point",
        "coordinates": [
          -136.78366924364082,
          38.81847848875298
        ]
      }
    },
    {
      "type": "Feature",
      "properties": {
        "norad_id": 66921,
        "name": "HULIANWANG DIGUI-111",
        "group": "last-30-days",
        "lat": 36.16286668832687,
        "lon": -132.15061091820806,
        "alt_km": 881.0651607032169,
        "timestamp": "2025-12-20T11:30:27.107278+00:00",
        "meta_object_name": "HULIANWANG DIGUI-111",
        "meta_object_id": "2025-285G",
        "meta_epoch": "2025-12-20T05:46:00.122880",
        "meta_mean_motion": 14.03631384,
        "meta_eccentricity": 0.000665,
        "meta_inclination": 50.0119,
        "meta_ra_of_asc_node": 86.6606,
        "meta_arg_of_pericenter": 318.3841,
        "meta_mean_anomaly": 41.6556,
        "meta_ephemeris_type": 0,
        "meta_classification_type": "U",
        "meta_norad_cat_id": 66921,
        "meta_element_set_no": 999,
        "meta_rev_at_epoch": 196,
        "meta_bstar": -9.446e-06,
        "meta_mean_motion_dot": -1.66e-06,
        "meta_mean_motion_ddot": 0,
        "tle_line1": "1 66921U 25285G   25354.24027920 -.00000166  00000+0 -94460-5 0  9993",
        "tle_line2": "2 66921  50.0119  86.6606 0006650 318.3841  41.6556 14.03631384  1965"
      },
      "geometry": {
        "type": "Point",
        "coordinates": [
          -132.15061091820806,
          36.16286668832687
        ]
      }
    },
    {
      "type": "Feature",
      "properties": {
        "norad_id": 66922,
        "name": "HULIANWANG DIGUI-112",
        "group": "last-30-days",
        "lat": 32.961524743476815,
        "lon": -127.30517747631197,
        "alt_km": 881.2399522816258,
        "timestamp": "2025-12-20T11:30:27.107291+00:00",
        "meta_object_name": "HULIANWANG DIGUI-112",
        "meta_object_id": "2025-285H",
        "meta_epoch": "2025-12-20T05:44:33.429984",
        "meta_mean_motion": 14.03661354,
        "meta_eccentricity": 0.0006475,
        "meta_inclination": 50.0092,
        "meta_ra_of_asc_node": 86.6486,
        "meta_arg_of_pericenter": 329.0698,
        "meta_mean_anomaly": 30.9824,
        "meta_ephemeris_type": 0,
        "meta_classification_type": "U",
        "meta_norad_cat_id": 66922,
        "meta_element_set_no": 999,
        "meta_rev_at_epoch": 196,
        "meta_bstar": 4.2711e-06,
        "meta_mean_motion_dot": -1.45e-06,
        "meta_mean_motion_ddot": 0,
        "tle_line1": "1 66922U 25285H   25354.23927581 -.00000145  00000+0  42711-5 0  9993",
        "tle_line2": "2 66922  50.0092  86.6486 0006475 329.0698  30.9824 14.03661354  1965"
      },
      "geometry": {
        "type": "Point",
        "coordinates": [
          -127.30517747631197,
          32.961524743476815
        ]
      }
    },
    {
      "type": "Feature",
      "properties": {
        "norad_id": 66923,
        "name": "HULIANWANG DIGUI-113",
        "group": "last-30-days",
        "lat": 29.246772196180828,
        "lon": -122.37309997444822,
        "alt_km": 880.8483432923249,
        "timestamp": "2025-12-20T11:30:27.107301+00:00",
        "meta_object_name": "HULIANWANG DIGUI-113",
        "meta_object_id": "2025-285J",
        "meta_epoch": "2025-12-20T05:42:57.723840",
        "meta_mean_motion": 14.03699402,
        "meta_eccentricity": 0.0005092,
        "meta_inclination": 50.009,
        "meta_ra_of_asc_node": 86.6441,
        "meta_arg_of_pericenter": 323.6523,
        "meta_mean_anomaly": 36.4035,
        "meta_ephemeris_type": 0,
        "meta_classification_type": "U",
        "meta_norad_cat_id": 66923,
        "meta_element_set_no": 999,
        "meta_rev_at_epoch": 196,
        "meta_bstar": -1.1168e-05,
        "meta_mean_motion_dot": -1.69e-06,
        "meta_mean_motion_ddot": 0,
        "tle_line1": "1 66923U 25285J   25354.23816810 -.00000169  00000+0 -11168-4 0  9994",
        "tle_line2": "2 66923  50.0090  86.6441 0005092 323.6523  36.4035 14.03699402  1966"
      },
      "geometry": {
        "type": "Point",
        "coordinates": [
          -122.37309997444822,
          29.246772196180828
        ]
      }
    },
    {
      "type": "Feature",
      "properties": {
        "norad_id": 66924,
        "name": "CZ-8A R/B",
        "group": "last-30-days",
        "lat": -21.937214462663178,
        "lon": 63.448427852133776,
        "alt_km": 874.6742448947189,
        "timestamp": "2025-12-20T11:30:27.107312+00:00",
        "meta_object_name": "CZ-8A R/B",
        "meta_object_id": "2025-285K",
        "meta_epoch": "2025-12-20T04:56:24.079200",
        "meta_mean_motion": 14.30504473,
        "meta_eccentricity": 0.0119272,
        "meta_inclination": 50.0076,
        "meta_ra_of_asc_node": 84.3733,
        "meta_arg_of_pericenter": 133.0659,
        "meta_mean_anomaly": 228.0316,
        "meta_ephemeris_type": 0,
        "meta_classification_type": "U",
        "meta_norad_cat_id": 66924,
        "meta_element_set_no": 999,
        "meta_rev_at_epoch": 199,
        "meta_bstar": 4.587e-05,
        "meta_mean_motion_dot": -3.7e-07,
        "meta_mean_motion_ddot": 0,
        "tle_line1": "1 66924U 25285K   25354.20583425 -.00000037  00000+0  45870-4 0  9995",
        "tle_line2": "2 66924  50.0076  84.3733 0119272 133.0659 228.0316 14.30504473  1996"
      },
      "geometry": {
        "type": "Point",
        "coordinates": [
          63.448427852133776,
          -21.937214462663178
        ]
      }
    }
  ]
}